STARLINK-32744          
1 62509U 25003Y   26068.00696371  .00035310  00000+0  12858-2 0  9993
2 62509  43.0018 293.1311 0001370 268.9979  91.0716 15.27597765 66449
FLOCK 4G-10             
1 62670U 25009BP  26068.70827885  .00013952  00000+0  52624-3 0  9995
2 62670  97.3967 150.5883 0003469 341.4844  18.6269 15.27155944121340
